CCSDS_OMM_VERS = 2.0
CREATION_DATE  = 
ORIGINATOR     = 

OBJECT_NAME    = STARLINK-35833
OBJECT_ID      = 2025-265AC
CENTER_NAME    = EARTH
REF_FRAME      = TEME
TIME_SYSTEM    = UTC
MEAN_ELEMENT_THEORY = SGP/SGP4

EPOCH          = 2025-12-02T12:00:05.998752
MEAN_MOTION    = 15.75057042
ECCENTRICITY   = .000165
INCLINATION    = 42.9995
RA_OF_ASC_NODE = 114.7771
ARG_OF_PERICENTER = 260.4622
MEAN_ANOMALY   = 253.0079

EPHEMERIS_TYPE = 0
CLASSIFICATION_TYPE = U
NORAD_CAT_ID   = 66542
ELEMENT_SET_NO = 999
REV_AT_EPOCH   = 335
BSTAR          = -.35174E-3
MEAN_MOTION_DOT = -.54205E-3
MEAN_MOTION_DDOT = 0

CCSDS_OMM_VERS = 2.0
CREATION_DATE  = 
ORIGINATOR     = 

OBJECT_NAME    = STARLINK-35315
OBJECT_ID      = 2025-265AD
CENTER_NAME    = EARTH
REF_FRAME      = TEME
TIME_SYSTEM    = UTC
MEAN_ELEMENT_THEORY = SGP/SGP4

EPOCH          = 2025-12-02T12:00:05.998752
MEAN_MOTION    = 15.75024570
ECCENTRICITY   = .0001646
INCLINATION    = 42.9998
RA_OF_ASC_NODE = 114.7721
ARG_OF_PERICENTER = 259.8400
MEAN_ANOMALY   = 255.5524

EPHEMERIS_TYPE = 0
CLASSIFICATION_TYPE = U
NORAD_CAT_ID   = 66543
ELEMENT_SET_NO = 999
REV_AT_EPOCH   = 324
BSTAR          = .16791E-3
MEAN_MOTION_DOT = .25376E-3
MEAN_MOTION_DDOT = 0

CCSDS_OMM_VERS = 2.0
CREATION_DATE  = 
ORIGINATOR     = 

OBJECT_NAME    = STARLINK-35728
OBJECT_ID      = 2025-265AE
CENTER_NAME    = EARTH
REF_FRAME      = TEME
TIME_SYSTEM    = UTC
MEAN_ELEMENT_THEORY = SGP/SGP4

EPOCH          = 2025-12-02T12:00:05.998752
MEAN_MOTION    = 15.75024585
ECCENTRICITY   = .0001567
INCLINATION    = 42.9995
RA_OF_ASC_NODE = 114.7677
ARG_OF_PERICENTER = 262.7916
MEAN_ANOMALY   = 254.5168

EPHEMERIS_TYPE = 0
CLASSIFICATION_TYPE = U
NORAD_CAT_ID   = 66544
ELEMENT_SET_NO = 999
REV_AT_EPOCH   = 335
BSTAR          = .15772E-3
MEAN_MOTION_DOT = .23803E-3
MEAN_MOTION_DDOT = 0

CCSDS_OMM_VERS = 2.0
CREATION_DATE  = 
ORIGINATOR     = 

OBJECT_NAME    = SHIJIAN-30A
OBJECT_ID      = 2025-266A
CENTER_NAME    = EARTH
REF_FRAME      = TEME
TIME_SYSTEM    = UTC
MEAN_ELEMENT_THEORY = SGP/SGP4

EPOCH          = 2025-12-02T12:51:15.851232
MEAN_MOTION    = 15.15308100
ECCENTRICITY   = .001276
INCLINATION    = 51.7995
RA_OF_ASC_NODE = 20.6602
ARG_OF_PERICENTER = 319.9882
MEAN_ANOMALY   = 40.0154

EPHEMERIS_TYPE = 0
CLASSIFICATION_TYPE = U
NORAD_CAT_ID   = 66545
ELEMENT_SET_NO = 999
REV_AT_EPOCH   = 203
BSTAR          = .78432E-3
MEAN_MOTION_DOT = .14707E-3
MEAN_MOTION_DDOT = 0

CCSDS_OMM_VERS = 2.0
CREATION_DATE  = 
ORIGINATOR     = 

OBJECT_NAME    = SHIJIAN-30B
OBJECT_ID      = 2025-266B
CENTER_NAME    = EARTH
REF_FRAME      = TEME
TIME_SYSTEM    = UTC
MEAN_ELEMENT_THEORY = SGP/SGP4

EPOCH          = 2025-12-02T12:52:44.416416
MEAN_MOTION    = 15.15366114
ECCENTRICITY   = .0010432
INCLINATION    = 51.7978
RA_OF_ASC_NODE = 20.6650
ARG_OF_PERICENTER = 322.9170
MEAN_ANOMALY   = 37.1085

EPHEMERIS_TYPE = 0
CLASSIFICATION_TYPE = U
NORAD_CAT_ID   = 66546
ELEMENT_SET_NO = 999
REV_AT_EPOCH   = 203
BSTAR          = .90596E-3
MEAN_MOTION_DOT = .1706E-3
MEAN_MOTION_DDOT = 0

CCSDS_OMM_VERS = 2.0
CREATION_DATE  = 
ORIGINATOR     = 

OBJECT_NAME    = SHIJIAN-30C
OBJECT_ID      = 2025-266C
CENTER_NAME    = EARTH
REF_FRAME      = TEME
TIME_SYSTEM    = UTC
MEAN_ELEMENT_THEORY = SGP/SGP4

EPOCH          = 2025-12-02T12:53:51.456768
MEAN_MOTION    = 15.15406798
ECCENTRICITY   = .0011331
INCLINATION    = 51.7989
RA_OF_ASC_NODE = 20.6706
ARG_OF_PERICENTER = 315.1457
MEAN_ANOMALY   = 44.8603

EPHEMERIS_TYPE = 0
CLASSIFICATION_TYPE = U
NORAD_CAT_ID   = 66547
ELEMENT_SET_NO = 999
REV_AT_EPOCH   = 203
BSTAR          = .79069E-3
MEAN_MOTION_DOT = .14866E-3
MEAN_MOTION_DDOT = 0

CCSDS_OMM_VERS = 2.0
CREATION_DATE  = 
ORIGINATOR     = 

OBJECT_NAME    = CZ-2C R/B
OBJECT_ID      = 2025-266D
CENTER_NAME    = EARTH
REF_FRAME      = TEME
TIME_SYSTEM    = UTC
MEAN_ELEMENT_THEORY = SGP/SGP4

EPOCH          = 2025-12-02T11:27:32.023872
MEAN_MOTION    = 15.29821049
ECCENTRICITY   = .0084839
INCLINATION    = 52.0550
RA_OF_ASC_NODE = 20.1598
ARG_OF_PERICENTER = 138.1426
MEAN_ANOMALY   = 222.6089

EPHEMERIS_TYPE = 0
CLASSIFICATION_TYPE = U
NORAD_CAT_ID   = 66548
ELEMENT_SET_NO = 999
REV_AT_EPOCH   = 204
BSTAR          = .47166E-3
MEAN_MOTION_DOT = .1505E-3
MEAN_MOTION_DDOT = 0

CCSDS_OMM_VERS = 2.0
CREATION_DATE  = 
ORIGINATOR     = 

OBJECT_NAME    = SHIJIAN-28
OBJECT_ID      = 2025-277A
CENTER_NAME    = EARTH
REF_FRAME      = TEME
TIME_SYSTEM    = UTC
MEAN_ELEMENT_THEORY = SGP/SGP4

EPOCH          = 2025-11-30T18:06:43.124256
MEAN_MOTION    = 2.28019775
ECCENTRICITY   = .7300519
INCLINATION    = 14.4344
RA_OF_ASC_NODE = 275.4056
ARG_OF_PERICENTER = 179.5026
MEAN_ANOMALY   = 182.3580

EPHEMERIS_TYPE = 0
CLASSIFICATION_TYPE = U
NORAD_CAT_ID   = 66549
ELEMENT_SET_NO = 999
REV_AT_EPOCH   = 4
BSTAR          = .62085E-3
MEAN_MOTION_DOT = .6315E-4
MEAN_MOTION_DDOT = 0

CCSDS_OMM_VERS = 2.0
CREATION_DATE  = 
ORIGINATOR     = 

OBJECT_NAME    = CZ-7A R/B
OBJECT_ID      = 2025-277B
CENTER_NAME    = EARTH
REF_FRAME      = TEME
TIME_SYSTEM    = UTC
MEAN_ELEMENT_THEORY = SGP/SGP4

EPOCH          = 2025-12-01T03:57:29.558880
MEAN_MOTION    = 2.40161271
ECCENTRICITY   = .72362879
INCLINATION    = 14.4278
RA_OF_ASC_NODE = 275.3780
ARG_OF_PERICENTER = 178.5774
MEAN_ANOMALY   = 186.2906

EPHEMERIS_TYPE = 0
CLASSIFICATION_TYPE = U
NORAD_CAT_ID   = 66550
ELEMENT_SET_NO = 999
REV_AT_EPOCH   = 5
BSTAR          = .44603974E-4
MEAN_MOTION_DOT = .16399E-3
MEAN_MOTION_DDOT = -.71945E-7

CCSDS_OMM_VERS = 2.0
CREATION_DATE  = 
ORIGINATOR     = 

OBJECT_NAME    = GLOBAL-33
OBJECT_ID      = 2025-267A
CENTER_NAME    = EARTH
REF_FRAME      = TEME
TIME_SYSTEM    = UTC
MEAN_ELEMENT_THEORY = SGP/SGP4

EPOCH          = 2025-12-01T20:06:06.812640
MEAN_MOTION    = 15.31226532
ECCENTRICITY   = .00056758
INCLINATION    = 42.0184
RA_OF_ASC_NODE = 119.9156
ARG_OF_PERICENTER = 335.5571
MEAN_ANOMALY   = 24.4997

EPHEMERIS_TYPE = 0
CLASSIFICATION_TYPE = U
NORAD_CAT_ID   = 66554
ELEMENT_SET_NO = 999
REV_AT_EPOCH   = 173
BSTAR          = .42244628E-3
MEAN_MOTION_DOT = .12793E-3
MEAN_MOTION_DDOT = 0

CCSDS_OMM_VERS = 2.0
CREATION_DATE  = 
ORIGINATOR     = 

OBJECT_NAME    = ELECTRON KICK STAGE R/B
OBJECT_ID      = 2025-267B
CENTER_NAME    = EARTH
REF_FRAME      = TEME
TIME_SYSTEM    = UTC
MEAN_ELEMENT_THEORY = SGP/SGP4

EPOCH          = 2025-12-02T02:14:34.409184
MEAN_MOTION    = 15.32043166
ECCENTRICITY   = .00074806
INCLINATION    = 42.0172
RA_OF_ASC_NODE = 118.3743
ARG_OF_PERICENTER = 336.8276
MEAN_ANOMALY   = 23.2223

EPHEMERIS_TYPE = 0
CLASSIFICATION_TYPE = U
NORAD_CAT_ID   = 66555
ELEMENT_SET_NO = 999
REV_AT_EPOCH   = 177
BSTAR          = .85113496E-3
MEAN_MOTION_DOT = .26769E-3
MEAN_MOTION_DDOT = 0

CCSDS_OMM_VERS = 2.0
CREATION_DATE  = 
ORIGINATOR     = 

OBJECT_NAME    = STARLINK-35699
OBJECT_ID      = 2025-268A
CENTER_NAME    = EARTH
REF_FRAME      = TEME
TIME_SYSTEM    = UTC
MEAN_ELEMENT_THEORY = SGP/SGP4

EPOCH          = 2025-12-02T12:00:05.998752
MEAN_MOTION    = 15.77523231
ECCENTRICITY   = .000162
INCLINATION    = 42.9972
RA_OF_ASC_NODE = 181.9337
ARG_OF_PERICENTER = 268.8321
MEAN_ANOMALY   = 215.5153

EPHEMERIS_TYPE = 0
CLASSIFICATION_TYPE = U
NORAD_CAT_ID   = 66557
ELEMENT_SET_NO = 999
REV_AT_EPOCH   = 302
BSTAR          = -.98568E-2
MEAN_MOTION_DOT = -.1489267E-1
MEAN_MOTION_DDOT = 0

CCSDS_OMM_VERS = 2.0
CREATION_DATE  = 
ORIGINATOR     = 

OBJECT_NAME    = STARLINK-35695
OBJECT_ID      = 2025-268B
CENTER_NAME    = EARTH
REF_FRAME      = TEME
TIME_SYSTEM    = UTC
MEAN_ELEMENT_THEORY = SGP/SGP4

EPOCH          = 2025-12-02T12:00:05.998752
MEAN_MOTION    = 15.77513495
ECCENTRICITY   = .0001655
INCLINATION    = 42.9974
RA_OF_ASC_NODE = 181.9290
ARG_OF_PERICENTER = 268.4896
MEAN_ANOMALY   = 217.8227

EPHEMERIS_TYPE = 0
CLASSIFICATION_TYPE = U
NORAD_CAT_ID   = 66558
ELEMENT_SET_NO = 999
REV_AT_EPOCH   = 302
BSTAR          = -.99397E-2
MEAN_MOTION_DOT = -.1499716E-1
MEAN_MOTION_DDOT = 0

CCSDS_OMM_VERS = 2.0
CREATION_DATE  = 
ORIGINATOR     = 

OBJECT_NAME    = STARLINK-35419
OBJECT_ID      = 2025-268C
CENTER_NAME    = EARTH
REF_FRAME      = TEME
TIME_SYSTEM    = UTC
MEAN_ELEMENT_THEORY = SGP/SGP4

EPOCH          = 2025-12-02T12:00:05.998752
MEAN_MOTION    = 15.77474507
ECCENTRICITY   = .0001638
INCLINATION    = 42.9975
RA_OF_ASC_NODE = 181.9234
ARG_OF_PERICENTER = 269.9270
MEAN_ANOMALY   = 218.4229

EPHEMERIS_TYPE = 0
CLASSIFICATION_TYPE = U
NORAD_CAT_ID   = 66559
ELEMENT_SET_NO = 999
REV_AT_EPOCH   = 302
BSTAR          = -.10002E-1
MEAN_MOTION_DOT = -.1505562E-1
MEAN_MOTION_DDOT = 0

CCSDS_OMM_VERS = 2.0
CREATION_DATE  = 
ORIGINATOR     = 

OBJECT_NAME    = STARLINK-35411
OBJECT_ID      = 2025-268D
CENTER_NAME    = EARTH
REF_FRAME      = TEME
TIME_SYSTEM    = UTC
MEAN_ELEMENT_THEORY = SGP/SGP4

EPOCH          = 2025-12-02T12:00:05.998752
MEAN_MOTION    = 15.77450741
ECCENTRICITY   = .000151
INCLINATION    = 42.9974
RA_OF_ASC_NODE = 181.9184
ARG_OF_PERICENTER = 269.1120
MEAN_ANOMALY   = 221.2252

EPHEMERIS_TYPE = 0
CLASSIFICATION_TYPE = U
NORAD_CAT_ID   = 66560
ELEMENT_SET_NO = 999
REV_AT_EPOCH   = 302
BSTAR          = -.10022E-1
MEAN_MOTION_DOT = -.1506752E-1
MEAN_MOTION_DDOT = 0

